[{"OBJECT_NAME":"THEOS-2 (T2V)","OBJECT_ID":"2023-155A","EPOCH":"2026-03-09T23:23:00.745152","MEAN_MOTION":14.81769696,"ECCENTRICITY":0.00013176,"INCLINATION":97.896,"RA_OF_ASC_NODE":141.418,"ARG_OF_PERICENTER":94.2148,"MEAN_ANOMALY":265.9216,"EPHEMERIS_TYPE":0,"CLASSIFICATION_TYPE":"U","NORAD_CAT_ID":58016,"ELEMENT_SET_NO":999,"REV_AT_EPOCH":13073,"BSTAR":0.00016747665,"MEAN_MOTION_DOT":1.269e-5,"MEAN_MOTION_DDOT":0},{"OBJECT_NAME":"UNKNOWN","OBJECT_ID":"","EPOCH":"2026-03-08T13:56:10.992192","MEAN_MOTION":14.80146945,"ECCENTRICITY":0.0002389,"INCLINATION":99.8399,"RA_OF_ASC_NODE":106.8631,"ARG_OF_PERICENTER":110.0444,"MEAN_ANOMALY":42.7966,"EPHEMERIS_TYPE":0,"CLASSIFICATION_TYPE":"U","NORAD_CAT_ID":85023,"ELEMENT_SET_NO":999,"REV_AT_EPOCH":64150,"BSTAR":0.0060052,"MEAN_MOTION_DOT":0.00045826,"MEAN_MOTION_DDOT":0}]
